STARLINK-5837           
1 56346U 23058AF  25254.27665812  .00000352  00000+0  31918-4 0  9992
2 56346  97.6043 254.5941 0003603  67.2497 292.9108 15.01263427131212
STARLINK-5829           
1 56347U 23058AG  25254.27110027 -.00000147  00000+0 -68754-5 0  9999
2 56347  97.6027 254.6013 0003997  57.2048 302.9561 15.01264570131218
STARLINK-5888           
1 56348U 23058AH  25254.27875334 -.00000214  00000+0 -12154-4 0  9996
2 56348  97.6025 254.5906 0002639  46.7445 313.4000 15.01264063131215
STARLINK-5887           
1 56349U 23058AJ  25253.99894956 -.00000066  00000+0 -61730-6 0  9997
2 56349  97.6026 254.3471 0002122  62.4146 297.7294 15.01255509131171
STARLINK-5886           
1 56350U 23058AK  25254.26739708  .00002316  00000+0  18484-3 0  9996
2 56350  97.6021 254.6065 0002014  74.7496 285.3951 15.01249234131210
STARLINK-5891           
1 56351U 23058AL  25254.26369465  .00000731  00000+0  61476-4 0  9995
2 56351  97.6028 254.6106 0001908  63.1619 296.9801 15.01257291131218
STARLINK-5885           
1 56352U 23058AM  25254.26925258 -.00000549  00000+0 -38226-4 0  9990
2 56352  97.6026 254.6044 0003392  66.0122 294.1458 15.01260626131212
STARLINK-5874           
1 56353U 23058AN  25254.25073074  .00001672  00000+0  13473-3 0  9992
2 56353  97.6025 254.6258 0001997 121.0094 239.1327 15.01248380131215
STARLINK-5877           
1 56354U 23058AP  25254.27134508 -.00001124  00000+0 -82937-4 0  9991
2 56354  97.6016 254.6009 0003874  61.1732 298.9881 15.01268107131216
STARLINK-5533           
1 56355U 23058AQ  25254.12482928 -.00000675  00000+0 -47984-4 0  9991
2 56355  97.6024 254.4871 0001824 102.7351 257.4078 15.01265019131197
STARLINK-5535           
1 56356U 23058AR  25254.19333587 -.00000380  00000+0 -25032-4 0  9998
2 56356  97.6022 254.5496 0001600  91.3744 268.7664 15.01262619131202
STARLINK-5538           
1 56357U 23058AS  25254.19172808  .00000869  00000+0  72217-4 0  9993
2 56357  97.6023 254.5515 0001972  87.5661 272.5789 15.01261859131209
STARLINK-5482           
1 56358U 23058AT  25253.99522791 -.00002256  00000+0 -17120-3 0  9996
2 56358  97.6025 254.3514 0001659  76.8811 283.2599 15.01260197131177
STARLINK-5551           
1 56359U 23058AU  25254.25652584 -.00000971  00000+0 -71053-4 0  9999
2 56359  97.6027 254.6197 0001411 118.5828 241.5539 15.01264334131211
STARLINK-5549           
1 56360U 23058AV  25254.25628050 -.00002775  00000+0 -21153-3 0  9991
2 56360  97.6027 254.6199 0001659  94.5797 265.5617 15.01271850131211
STARLINK-5550           
1 56361U 23058AW  25254.25442902 -.00001003  00000+0 -73531-4 0  9993
2 56361  97.6025 254.6223 0001462 107.9937 252.1447 15.01266041131214
