[{"OBJECT_NAME":"STARLINK-5837","OBJECT_ID":"2023-058AF","EPOCH":"2025-09-11T06:38:23.261568","MEAN_MOTION":15.01263427,"ECCENTRICITY":0.00036032,"INCLINATION":97.6043,"RA_OF_ASC_NODE":254.5941,"ARG_OF_PERICENTER":67.2497,"MEAN_ANOMALY":292.9108,"EPHEMERIS_TYPE":0,"CLASSIFICATION_TYPE":"U","NORAD_CAT_ID":56346,"ELEMENT_SET_NO":999,"REV_AT_EPOCH":13121,"BSTAR":3.1918399e-5,"MEAN_MOTION_DOT":3.52e-6,"MEAN_MOTION_DDOT":0},{"OBJECT_NAME":"STARLINK-5829","OBJECT_ID":"2023-058AG","EPOCH":"2025-09-11T06:30:23.063328","MEAN_MOTION":15.0126457,"ECCENTRICITY":0.0003997,"INCLINATION":97.6027,"RA_OF_ASC_NODE":254.6013,"ARG_OF_PERICENTER":57.2048,"MEAN_ANOMALY":302.9561,"EPHEMERIS_TYPE":0,"CLASSIFICATION_TYPE":"U","NORAD_CAT_ID":56347,"ELEMENT_SET_NO":999,"REV_AT_EPOCH":13121,"BSTAR":-6.875382e-6,"MEAN_MOTION_DOT":-1.47e-6,"MEAN_MOTION_DDOT":0},{"OBJECT_NAME":"STARLINK-5888","OBJECT_ID":"2023-058AH","EPOCH":"2025-09-11T06:41:24.288576","MEAN_MOTION":15.01264063,"ECCENTRICITY":0.00026397,"INCLINATION":97.6025,"RA_OF_ASC_NODE":254.5906,"ARG_OF_PERICENTER":46.7445,"MEAN_ANOMALY":313.4,"EPHEMERIS_TYPE":0,"CLASSIFICATION_TYPE":"U","NORAD_CAT_ID":56348,"ELEMENT_SET_NO":999,"REV_AT_EPOCH":13121,"BSTAR":-1.2154416e-5,"MEAN_MOTION_DOT":-2.14e-6,"MEAN_MOTION_DDOT":0},{"OBJECT_NAME":"STARLINK-5887","OBJECT_ID":"2023-058AJ","EPOCH":"2025-09-10T23:58:29.241984","MEAN_MOTION":15.01255509,"ECCENTRICITY":0.00021229,"INCLINATION":97.6026,"RA_OF_ASC_NODE":254.3471,"ARG_OF_PERICENTER":62.4146,"MEAN_ANOMALY":297.7294,"EPHEMERIS_TYPE":0,"CLASSIFICATION_TYPE":"U","NORAD_CAT_ID":56349,"ELEMENT_SET_NO":999,"REV_AT_EPOCH":13117,"BSTAR":-6.17297e-7,"MEAN_MOTION_DOT":-6.6e-7,"MEAN_MOTION_DDOT":0},{"OBJECT_NAME":"STARLINK-5886","OBJECT_ID":"2023-058AK","EPOCH":"2025-09-11T06:25:03.107712","MEAN_MOTION":15.01249234,"ECCENTRICITY":0.00020141,"INCLINATION":97.6021,"RA_OF_ASC_NODE":254.6065,"ARG_OF_PERICENTER":74.7496,"MEAN_ANOMALY":285.3951,"EPHEMERIS_TYPE":0,"CLASSIFICATION_TYPE":"U","NORAD_CAT_ID":56350,"ELEMENT_SET_NO":999,"REV_AT_EPOCH":13121,"BSTAR":0.00018483508,"MEAN_MOTION_DOT":2.316e-5,"MEAN_MOTION_DDOT":0},{"OBJECT_NAME":"STARLINK-5891","OBJECT_ID":"2023-058AL","EPOCH":"2025-09-11T06:19:43.217760","MEAN_MOTION":15.01257291,"ECCENTRICITY":0.00019089,"INCLINATION":97.6028,"RA_OF_ASC_NODE":254.6106,"ARG_OF_PERICENTER":63.1619,"MEAN_ANOMALY":296.9801,"EPHEMERIS_TYPE":0,"CLASSIFICATION_TYPE":"U","NORAD_CAT_ID":56351,"ELEMENT_SET_NO":999,"REV_AT_EPOCH":13121,"BSTAR":6.1476428e-5,"MEAN_MOTION_DOT":7.31e-6,"MEAN_MOTION_DDOT":0},{"OBJECT_NAME":"STARLINK-5885","OBJECT_ID":"2023-058AM","EPOCH":"2025-09-11T06:27:43.422912","MEAN_MOTION":15.01260626,"ECCENTRICITY":0.00033928,"INCLINATION":97.6026,"RA_OF_ASC_NODE":254.6044,"ARG_OF_PERICENTER":66.0122,"MEAN_ANOMALY":294.1458,"EPHEMERIS_TYPE":0,"CLASSIFICATION_TYPE":"U","NORAD_CAT_ID":56352,"ELEMENT_SET_NO":999,"REV_AT_EPOCH":13121,"BSTAR":-3.8226487e-5,"MEAN_MOTION_DOT":-5.49e-6,"MEAN_MOTION_DDOT":0},{"OBJECT_NAME":"STARLINK-5874","OBJECT_ID":"2023-058AN","EPOCH":"2025-09-11T06:01:03.135936","MEAN_MOTION":15.0124838,"ECCENTRICITY":0.0001997,"INCLINATION":97.6025,"RA_OF_ASC_NODE":254.6258,"ARG_OF_PERICENTER":121.0094,"MEAN_ANOMALY":239.1327,"EPHEMERIS_TYPE":0,"CLASSIFICATION_TYPE":"U","NORAD_CAT_ID":56353,"ELEMENT_SET_NO":999,"REV_AT_EPOCH":13121,"BSTAR":0.00013472965,"MEAN_MOTION_DOT":1.672e-5,"MEAN_MOTION_DDOT":0},{"OBJECT_NAME":"STARLINK-5877","OBJECT_ID":"2023-058AP","EPOCH":"2025-09-11T06:30:44.214912","MEAN_MOTION":15.01268107,"ECCENTRICITY":0.00038745,"INCLINATION":97.6016,"RA_OF_ASC_NODE":254.6009,"ARG_OF_PERICENTER":61.1732,"MEAN_ANOMALY":298.9881,"EPHEMERIS_TYPE":0,"CLASSIFICATION_TYPE":"U","NORAD_CAT_ID":56354,"ELEMENT_SET_NO":999,"REV_AT_EPOCH":13121,"BSTAR":-8.2937322e-5,"MEAN_MOTION_DOT":-1.124e-5,"MEAN_MOTION_DDOT":0},{"OBJECT_NAME":"STARLINK-5533","OBJECT_ID":"2023-058AQ","EPOCH":"2025-09-11T02:59:45.249792","MEAN_MOTION":15.01265019,"ECCENTRICITY":0.00018248,"INCLINATION":97.6024,"RA_OF_ASC_NODE":254.4871,"ARG_OF_PERICENTER":102.7351,"MEAN_ANOMALY":257.4078,"EPHEMERIS_TYPE":0,"CLASSIFICATION_TYPE":"U","NORAD_CAT_ID":56355,"ELEMENT_SET_NO":999,"REV_AT_EPOCH":13119,"BSTAR":-4.798394e-5,"MEAN_MOTION_DOT":-6.75e-6,"MEAN_MOTION_DDOT":0},{"OBJECT_NAME":"STARLINK-5535","OBJECT_ID":"2023-058AR","EPOCH":"2025-09-11T04:38:24.219168","MEAN_MOTION":15.01262619,"ECCENTRICITY":0.00016002,"INCLINATION":97.6022,"RA_OF_ASC_NODE":254.5496,"ARG_OF_PERICENTER":91.3744,"MEAN_ANOMALY":268.7664,"EPHEMERIS_TYPE":0,"CLASSIFICATION_TYPE":"U","NORAD_CAT_ID":56356,"ELEMENT_SET_NO":999,"REV_AT_EPOCH":13120,"BSTAR":-2.5032323e-5,"MEAN_MOTION_DOT":-3.8e-6,"MEAN_MOTION_DDOT":0},{"OBJECT_NAME":"STARLINK-5538","OBJECT_ID":"2023-058AS","EPOCH":"2025-09-11T04:36:05.306112","MEAN_MOTION":15.01261859,"ECCENTRICITY":0.0001972,"INCLINATION":97.6023,"RA_OF_ASC_NODE":254.5515,"ARG_OF_PERICENTER":87.5661,"MEAN_ANOMALY":272.5789,"EPHEMERIS_TYPE":0,"CLASSIFICATION_TYPE":"U","NORAD_CAT_ID":56357,"ELEMENT_SET_NO":999,"REV_AT_EPOCH":13120,"BSTAR":7.2216866e-5,"MEAN_MOTION_DOT":8.69e-6,"MEAN_MOTION_DDOT":0},{"OBJECT_NAME":"STARLINK-5482","OBJECT_ID":"2023-058AT","EPOCH":"2025-09-10T23:53:07.691424","MEAN_MOTION":15.01260197,"ECCENTRICITY":0.00016592,"INCLINATION":97.6025,"RA_OF_ASC_NODE":254.3514,"ARG_OF_PERICENTER":76.8811,"MEAN_ANOMALY":283.2599,"EPHEMERIS_TYPE":0,"CLASSIFICATION_TYPE":"U","NORAD_CAT_ID":56358,"ELEMENT_SET_NO":999,"REV_AT_EPOCH":13117,"BSTAR":-0.00017119518,"MEAN_MOTION_DOT":-2.256e-5,"MEAN_MOTION_DDOT":0},{"OBJECT_NAME":"STARLINK-5551","OBJECT_ID":"2023-058AU","EPOCH":"2025-09-11T06:09:23.832576","MEAN_MOTION":15.01264334,"ECCENTRICITY":0.00014116,"INCLINATION":97.6027,"RA_OF_ASC_NODE":254.6197,"ARG_OF_PERICENTER":118.5828,"MEAN_ANOMALY":241.5539,"EPHEMERIS_TYPE":0,"CLASSIFICATION_TYPE":"U","NORAD_CAT_ID":56359,"ELEMENT_SET_NO":999,"REV_AT_EPOCH":13121,"BSTAR":-7.1053006e-5,"MEAN_MOTION_DOT":-9.71e-6,"MEAN_MOTION_DDOT":0},{"OBJECT_NAME":"STARLINK-5549","OBJECT_ID":"2023-058AV","EPOCH":"2025-09-11T06:09:02.635200","MEAN_MOTION":15.0127185,"ECCENTRICITY":0.00016593,"INCLINATION":97.6027,"RA_OF_ASC_NODE":254.6199,"ARG_OF_PERICENTER":94.5797,"MEAN_ANOMALY":265.5617,"EPHEMERIS_TYPE":0,"CLASSIFICATION_TYPE":"U","NORAD_CAT_ID":56360,"ELEMENT_SET_NO":999,"REV_AT_EPOCH":13121,"BSTAR":-0.0002115311,"MEAN_MOTION_DOT":-2.775e-5,"MEAN_MOTION_DDOT":0},{"OBJECT_NAME":"STARLINK-5550","OBJECT_ID":"2023-058AW","EPOCH":"2025-09-11T06:06:22.667328","MEAN_MOTION":15.01266041,"ECCENTRICITY":0.00014628,"INCLINATION":97.6025,"RA_OF_ASC_NODE":254.6223,"ARG_OF_PERICENTER":107.9937,"MEAN_ANOMALY":252.1447,"EPHEMERIS_TYPE":0,"CLASSIFICATION_TYPE":"U","NORAD_CAT_ID":56361,"ELEMENT_SET_NO":999,"REV_AT_EPOCH":13121,"BSTAR":-7.3530861e-5,"MEAN_MOTION_DOT":-1.003e-5,"MEAN_MOTION_DDOT":0}]
